start=new Date('2022-10-19T00:00:00.000Z').valueOf();
sats=[{"MEAN_MOTION_DDOT":"0.0000000000000","RA_OF_ASC_NODE":"230.6849","REF_FRAME":"TEME","APOAPSIS":"540.818","RCS_SIZE":"LARGE","ARG_OF_PERICENTER":"56.6760","FILE":"3621750","ELEMENT_SET_NO":"999","MEAN_MOTION":"15.08830454","OBJECT_ID":"2022-101G","CLASSIFICATION_TYPE":"U","TLE_LINE2":"2 53533  53.2172 230.6849 0001508  56.6760   9.9574 15.08830454  1303","PERIAPSIS":"538.731","COUNTRY_CODE":"US","MEAN_ANOMALY":"9.9574","ECCENTRICITY":"0.00015080","DECAY_DATE":null,"LAUNCH_DATE":"2022-08-19","GP_ID":"215531311","TIME_SYSTEM":"UTC","TLE_LINE1":"1 53533U 22101G   22291.91667824 -.00000642  00000-0 -22222-4 0  9992","REV_AT_EPOCH":"130","MEAN_ELEMENT_THEORY":"SGP4","BSTAR":"-0.00002222200000","SEMIMAJOR_AXIS":"6917.910","SITE":"AFETR","NORAD_CAT_ID":"53533","INCLINATION":"53.2172","OBJECT_NAME":"STARLINK-4493","EPHEMERIS_TYPE":"0","EPOCH":"2022-10-18T22:00:00.999936","MEAN_MOTION_DOT":"-0.00000642","CENTER_NAME":"EARTH","OBJECT_TYPE":"PAYLOAD","PERIOD":"95.438"},{"SEMIMAJOR_AXIS":"6917.904","SITE":"AFETR","GP_ID":"215531634","TIME_SYSTEM":"UTC","TLE_LINE1":"1 53534U 22101H   22291.91667824  .00000159  00000-0  28119-4 0  9995","REV_AT_EPOCH":"130","MEAN_ELEMENT_THEORY":"SGP4","BSTAR":"0.00002811900000","MEAN_MOTION_DOT":"0.00000159","CENTER_NAME":"EARTH","OBJECT_TYPE":"PAYLOAD","PERIOD":"95.438","NORAD_CAT_ID":"53534","INCLINATION":"53.2167","OBJECT_NAME":"STARLINK-4488","EPHEMERIS_TYPE":"0","EPOCH":"2022-10-18T22:00:00.999936","ARG_OF_PERICENTER":"56.5963","ELEMENT_SET_NO":"999","FILE":"3621750","MEAN_MOTION":"15.08832248","OBJECT_ID":"2022-101H","CLASSIFICATION_TYPE":"U","MEAN_MOTION_DDOT":"0.0000000000000","RA_OF_ASC_NODE":"230.6835","REF_FRAME":"TEME","APOAPSIS":"540.797","RCS_SIZE":"LARGE","ECCENTRICITY":"0.00014860","DECAY_DATE":null,"LAUNCH_DATE":"2022-08-19","TLE_LINE2":"2 53534  53.2167 230.6835 0001486  56.5963  75.2080 15.08832248  1303","PERIAPSIS":"538.741","COUNTRY_CODE":"US","MEAN_ANOMALY":"75.2080"},{"TIME_SYSTEM":"UTC","GP_ID":"215531050","MEAN_ELEMENT_THEORY":"SGP4","REV_AT_EPOCH":"130","TLE_LINE1":"1 53535U 22101J   22291.91667824 -.00001267  00000-0 -61516-4 0  9997","BSTAR":"-0.00006151600000","SEMIMAJOR_AXIS":"6917.919","SITE":"AFETR","INCLINATION":"53.2167","NORAD_CAT_ID":"53535","OBJECT_NAME":"STARLINK-4138","EPOCH":"2022-10-18T22:00:00.999936","EPHEMERIS_TYPE":"0","CENTER_NAME":"EARTH","MEAN_MOTION_DOT":"-0.00001267","PERIOD":"95.438","OBJECT_TYPE":"PAYLOAD","MEAN_MOTION_DDOT":"0.0000000000000","RA_OF_ASC_NODE":"230.6833","REF_FRAME":"TEME","RCS_SIZE":"LARGE","APOAPSIS":"540.903","ARG_OF_PERICENTER":"65.3102","CLASSIFICATION_TYPE":"U","OBJECT_ID":"2022-101J","FILE":"3621750","ELEMENT_SET_NO":"999","MEAN_MOTION":"15.08827288","PERIAPSIS":"538.666","TLE_LINE2":"2 53535  53.2167 230.6833 0001617  65.3102  26.4858 15.08827288  1300","COUNTRY_CODE":"US","MEAN_ANOMALY":"26.4858","ECCENTRICITY":"0.00016170","DECAY_DATE":null,"LAUNCH_DATE":"2022-08-19"},{"CENTER_NAME":"EARTH","MEAN_MOTION_DOT":"-0.01076276","OBJECT_TYPE":"PAYLOAD","PERIOD":"93.981","INCLINATION":"53.2170","NORAD_CAT_ID":"53536","EPOCH":"2022-10-18T22:00:00.999936","EPHEMERIS_TYPE":"0","OBJECT_NAME":"STARLINK-4053","SEMIMAJOR_AXIS":"6847.331","SITE":"AFETR","REV_AT_EPOCH":"130","MEAN_ELEMENT_THEORY":"SGP4","TLE_LINE1":"1 53536U 22101K   22291.91667824 -.01076276  00000-0 -37225-1 0  9998","TIME_SYSTEM":"UTC","GP_ID":"215532041","BSTAR":"-0.03722500000000","ECCENTRICITY":"0.00015520","LAUNCH_DATE":"2022-08-19","DECAY_DATE":null,"COUNTRY_CODE":"US","PERIAPSIS":"468.134","TLE_LINE2":"2 53536  53.2170 220.5615 0001552  46.4505 277.2785 15.32218685  1303","MEAN_ANOMALY":"277.2785","ARG_OF_PERICENTER":"46.4505","CLASSIFICATION_TYPE":"U","FILE":"3621750","ELEMENT_SET_NO":"999","OBJECT_ID":"2022-101K","MEAN_MOTION":"15.32218685","RA_OF_ASC_NODE":"220.5615","MEAN_MOTION_DDOT":"0.0000000000000","APOAPSIS":"470.259","RCS_SIZE":"LARGE","REF_FRAME":"TEME"},{"TIME_SYSTEM":"UTC","GP_ID":"215530894","MEAN_ELEMENT_THEORY":"SGP4","REV_AT_EPOCH":"130","TLE_LINE1":"1 53537U 22101L   22291.91667824 -.00000929  00000-0 -40274-4 0  9991","BSTAR":"-0.00004027400000","SEMIMAJOR_AXIS":"6917.871","SITE":"AFETR","INCLINATION":"53.2168","NORAD_CAT_ID":"53537","OBJECT_NAME":"STARLINK-4120","EPOCH":"2022-10-18T22:00:00.999936","EPHEMERIS_TYPE":"0","CENTER_NAME":"EARTH","MEAN_MOTION_DOT":"-0.00000929","PERIOD":"95.437","OBJECT_TYPE":"PAYLOAD","MEAN_MOTION_DDOT":"0.0000000000000","RA_OF_ASC_NODE":"230.6839","REF_FRAME":"TEME","RCS_SIZE":"LARGE","APOAPSIS":"540.919","ARG_OF_PERICENTER":"58.2441","CLASSIFICATION_TYPE":"U","OBJECT_ID":"2022-101L","FILE":"3621750","ELEMENT_SET_NO":"999","MEAN_MOTION":"15.08843171","PERIAPSIS":"538.553","TLE_LINE2":"2 53537  53.2168 230.6839 0001710  58.2441  13.5334 15.08843171  1305","COUNTRY_CODE":"US","MEAN_ANOMALY":"13.5334","ECCENTRICITY":"0.00017100","DECAY_DATE":null,"LAUNCH_DATE":"2022-08-19"},{"ELEMENT_SET_NO":"999","FILE":"3621750","MEAN_MOTION":"15.25468045","OBJECT_ID":"2022-101M","CLASSIFICATION_TYPE":"U","ARG_OF_PERICENTER":"69.6976","REF_FRAME":"TEME","RCS_SIZE":"LARGE","APOAPSIS":"490.272","MEAN_MOTION_DDOT":"0.0000000000000","RA_OF_ASC_NODE":"221.1876","DECAY_DATE":null,"LAUNCH_DATE":"2022-08-19","ECCENTRICITY":"0.00012960","MEAN_ANOMALY":"278.6392","TLE_LINE2":"2 53538  53.2168 221.1876 0001296  69.6976 278.6392 15.25468045  1300","PERIAPSIS":"488.492","COUNTRY_CODE":"US","SITE":"AFETR","SEMIMAJOR_AXIS":"6867.517","BSTAR":"-0.04587500000000","GP_ID":"215531876","TIME_SYSTEM":"UTC","TLE_LINE1":"1 53538U 22101M   22291.91667824 -.01076526  00000-0 -45875-1 0  9998","REV_AT_EPOCH":"130","MEAN_ELEMENT_THEORY":"SGP4","PERIOD":"94.397","OBJECT_TYPE":"PAYLOAD","MEAN_MOTION_DOT":"-0.01076526","CENTER_NAME":"EARTH","OBJECT_NAME":"STARLINK-4118","EPHEMERIS_TYPE":"0","EPOCH":"2022-10-18T22:00:00.999936","NORAD_CAT_ID":"53538","INCLINATION":"53.2168"},{"TLE_LINE1":"1 53539U 22101N   22291.91667824 -.00000863  00000-0 -36116-4 0  9990","MEAN_ELEMENT_THEORY":"SGP4","REV_AT_EPOCH":"130","GP_ID":"215531468","TIME_SYSTEM":"UTC","BSTAR":"-0.00003611600000","SEMIMAJOR_AXIS":"6917.871","SITE":"AFETR","NORAD_CAT_ID":"53539","INCLINATION":"53.2165","EPHEMERIS_TYPE":"0","EPOCH":"2022-10-18T22:00:00.999936","OBJECT_NAME":"STARLINK-4123","MEAN_MOTION_DOT":"-0.00000863","CENTER_NAME":"EARTH","PERIOD":"95.437","OBJECT_TYPE":"PAYLOAD","RA_OF_ASC_NODE":"230.6826","MEAN_MOTION_DDOT":"0.0000000000000","APOAPSIS":"540.782","RCS_SIZE":"LARGE","REF_FRAME":"TEME","ARG_OF_PERICENTER":"66.3432","OBJECT_ID":"2022-101N","FILE":"3621750","ELEMENT_SET_NO":"999","MEAN_MOTION":"15.08842932","CLASSIFICATION_TYPE":"U","COUNTRY_CODE":"US","TLE_LINE2":"2 53539  53.2165 230.6826 0001512  66.3432  45.4705 15.08842932  1300","PERIAPSIS":"538.690","MEAN_ANOMALY":"45.4705","ECCENTRICITY":"0.00015120","LAUNCH_DATE":"2022-08-19","DECAY_DATE":null},{"MEAN_MOTION_DOT":"-0.01066494","CENTER_NAME":"EARTH","OBJECT_TYPE":"PAYLOAD","PERIOD":"94.380","NORAD_CAT_ID":"53540","INCLINATION":"53.2177","OBJECT_NAME":"STARLINK-4486","EPHEMERIS_TYPE":"0","EPOCH":"2022-10-18T22:00:00.999936","SEMIMAJOR_AXIS":"6866.692","SITE":"AFETR","GP_ID":"215531800","TIME_SYSTEM":"UTC","TLE_LINE1":"1 53540U 22101P   22291.91667824 -.01066494  00000-0 -45032-1 0  9999","REV_AT_EPOCH":"131","MEAN_ELEMENT_THEORY":"SGP4","BSTAR":"-0.04503200000000","ECCENTRICITY":"0.00013250","DECAY_DATE":null,"LAUNCH_DATE":"2022-08-19","TLE_LINE2":"2 53540  53.2177 221.1925 0001325  56.4021 304.4610 15.25743140  1310","PERIAPSIS":"487.647","COUNTRY_CODE":"US","MEAN_ANOMALY":"304.4610","ARG_OF_PERICENTER":"56.4021","FILE":"3621750","ELEMENT_SET_NO":"999","MEAN_MOTION":"15.25743140","OBJECT_ID":"2022-101P","CLASSIFICATION_TYPE":"U","MEAN_MOTION_DDOT":"0.0000000000000","RA_OF_ASC_NODE":"221.1925","REF_FRAME":"TEME","APOAPSIS":"489.467","RCS_SIZE":"LARGE"},{"APOAPSIS":"541.004","RCS_SIZE":"LARGE","REF_FRAME":"TEME","RA_OF_ASC_NODE":"230.6779","MEAN_MOTION_DDOT":"0.0000000000000","FILE":"3621618","ELEMENT_SET_NO":"999","OBJECT_ID":"2022-101Q","MEAN_MOTION":"15.08821911","CLASSIFICATION_TYPE":"U","ARG_OF_PERICENTER":"67.7689","MEAN_ANOMALY":"84.0547","COUNTRY_CODE":"US","TLE_LINE2":"2 53541  53.2174 230.6779 0001739  67.7689  84.0547 15.08821911  9305","PERIAPSIS":"538.598","LAUNCH_DATE":"2022-08-19","DECAY_DATE":null,"ECCENTRICITY":"0.00017390","BSTAR":"0.00001261800000","TLE_LINE1":"1 53541U 22101Q   22291.91667824 -.00000087  00000-0  12618-4 0  9991","MEAN_ELEMENT_THEORY":"SGP4","REV_AT_EPOCH":"930","GP_ID":"215503440","TIME_SYSTEM":"UTC","SITE":"AFETR","SEMIMAJOR_AXIS":"6917.936","EPHEMERIS_TYPE":"0","EPOCH":"2022-10-18T22:00:00.999936","OBJECT_NAME":"STARLINK-4485","NORAD_CAT_ID":"53541","INCLINATION":"53.2174","PERIOD":"95.439","OBJECT_TYPE":"PAYLOAD","CENTER_NAME":"EARTH","MEAN_MOTION_DOT":"-0.00000087"},{"LAUNCH_DATE":"2022-08-19","DECAY_DATE":null,"ECCENTRICITY":"0.00013070","MEAN_ANOMALY":"326.9905","COUNTRY_CODE":"US","TLE_LINE2":"2 53542  53.2177 221.2057 0001307  57.8221 326.9905 15.26333853  1308","PERIAPSIS":"485.888","OBJECT_ID":"2022-101R","FILE":"3621750","ELEMENT_SET_NO":"999","MEAN_MOTION":"15.26333853","CLASSIFICATION_TYPE":"U","ARG_OF_PERICENTER":"57.8221","APOAPSIS":"487.682","RCS_SIZE":"LARGE","REF_FRAME":"TEME","RA_OF_ASC_NODE":"221.2057","MEAN_MOTION_DDOT":"0.0000000000000","OBJECT_TYPE":"PAYLOAD","PERIOD":"94.344","CENTER_NAME":"EARTH","MEAN_MOTION_DOT":"-0.01067106","EPHEMERIS_TYPE":"0","EPOCH":"2022-10-18T22:00:00.999936","OBJECT_NAME":"STARLINK-4489","NORAD_CAT_ID":"53542","INCLINATION":"53.2177","SITE":"AFETR","SEMIMAJOR_AXIS":"6864.920","BSTAR":"-0.04425900000000","TLE_LINE1":"1 53542U 22101R   22291.91667824 -.01067106  00000-0 -44259-1 0  9992","MEAN_ELEMENT_THEORY":"SGP4","REV_AT_EPOCH":"130","GP_ID":"215531635","TIME_SYSTEM":"UTC"}];
